{"type": "FeatureCollection", "features": [ {"type": "Feature", "properties": {"norad_id": 40810, "name": "COSMOS 2251 DEB", "group": "cosmos-2251-debris", "lat": 73.17200338690711, "lon": -166.41040486409025, "alt_km": 700.3618554918294, "timestamp": "2025-12-07T11:27:50.405642+00:00", "meta": {"OBJECT_NAME": "COSMOS 2251 DEB", "OBJECT_ID": "1993-036BWP", "EPOCH": "2025-12-02T07:34:18.151104", "MEAN_MOTION": 14.58589191, "ECCENTRICITY": 0.00187807, "INCLINATION": 74.0355, "RA_OF_ASC_NODE": 94.5842, "ARG_OF_PERICENTER": 246.5096, "MEAN_ANOMALY": 113.4096, "EPHEMERIS_TYPE": 0, "CLASSIFICATION_TYPE": "U", "NORAD_CAT_ID": 40810, "ELEMENT_SET_NO": 999, "REV_AT_EPOCH": 61531, "BSTAR": 0.001131408, "MEAN_MOTION_DOT": 5.252e-05, "MEAN_MOTION_DDOT": 0}, "tle": {"line1": "1 40810U 93036BWP 25336.31548786  .00005252  00000+0  11314-2 0  9990", "line2": "2 40810  74.0355  94.5842 0018780 246.5096 113.4096 14.58589191615318"}}, "geometry": {"type": "Point", "coordinates": [-166.41040486409025, 73.17200338690711]}}, {"type": "Feature", "properties": {"norad_id": 46271, "name": "COSMOS 2251 DEB", "group": "cosmos-2251-debris", "lat": 62.84805102265104, "lon": -125.78704272970107, "alt_km": 718.6307012041661, "timestamp": "2025-12-07T11:27:50.405652+00:00", "meta": {"OBJECT_NAME": "COSMOS 2251 DEB", "OBJECT_ID": "1993-036BWT", "EPOCH": "2025-12-02T01:54:44.684640", "MEAN_MOTION": 14.51374966, "ECCENTRICITY": 0.00407046, "INCLINATION": 74.046, "RA_OF_ASC_NODE": 98.2636, "ARG_OF_PERICENTER": 221.9387, "MEAN_ANOMALY": 137.8656, "EPHEMERIS_TYPE": 0, "CLASSIFICATION_TYPE": "U", "NORAD_CAT_ID": 46271, "ELEMENT_SET_NO": 999, "REV_AT_EPOCH": 84487, "BSTAR": 0.0004698569, "MEAN_MOTION_DOT": 1.865e-05, "MEAN_MOTION_DDOT": 0}, "tle": {"line1": "1 46271U 93036BWT 25336.07968385  .00001865  00000+0  46986-3 0  9991", "line2": "2 46271  74.0460  98.2636 0040704 221.9387 137.8656 14.51374966844877"}}, "geometry": {"type": "Point", "coordinates": [-125.78704272970107, 62.84805102265104]}}, {"type": "Feature", "properties": {"norad_id": 46430, "name": "COSMOS 2251 DEB", "group": "cosmos-2251-debris", "lat": 0.12241117413083479, "lon": -173.70370917388195, "alt_km": 745.9076650326433, "timestamp": "2025-12-07T11:27:50.405661+00:00", "meta": {"OBJECT_NAME": "COSMOS 2251 DEB", "OBJECT_ID": "1993-036BWU", "EPOCH": "2025-12-03T09:00:26.936928", "MEAN_MOTION": 14.51043928, "ECCENTRICITY": 0.01031866, "INCLINATION": 73.9151, "RA_OF_ASC_NODE": 14.104, "ARG_OF_PERICENTER": 295.9829, "MEAN_ANOMALY": 63.073, "EPHEMERIS_TYPE": 0, "CLASSIFICATION_TYPE": "U", "NORAD_CAT_ID": 46430, "ELEMENT_SET_NO": 999, "REV_AT_EPOCH": 79547, "BSTAR": 0.0030362826, "MEAN_MOTION_DOT": 0.00012872, "MEAN_MOTION_DDOT": 0}, "tle": {"line1": "1 46430U 93036BWU 25337.37531177  .00012872  00000+0  30363-2 0  9998", "line2": "2 46430  73.9151  14.1040 0103186 295.9829  63.0730 14.51043928795476"}}, "geometry": {"type": "Point", "coordinates": [-173.70370917388195, 0.12241117413083479]}}, {"type": "Feature", "properties": {"norad_id": 46432, "name": "COSMOS 2251 DEB", "group": "cosmos-2251-debris", "lat": -35.84255811082959, "lon": 107.52109176708798, "alt_km": 1077.7352762107566, "timestamp": "2025-12-07T11:27:50.405671+00:00", "meta": {"OBJECT_NAME": "COSMOS 2251 DEB", "OBJECT_ID": "1993-036BWW", "EPOCH": "2025-12-06T16:01:31.706976", "MEAN_MOTION": 13.3661688, "ECCENTRICITY": 0.04737874, "INCLINATION": 73.8715, "RA_OF_ASC_NODE": 120.8611, "ARG_OF_PERICENTER": 239.3402, "MEAN_ANOMALY": 141.9377, "EPHEMERIS_TYPE": 0, "CLASSIFICATION_TYPE": "U", "NORAD_CAT_ID": 46432, "ELEMENT_SET_NO": 999, "REV_AT_EPOCH": 66885, "BSTAR": 0.0019683261, "MEAN_MOTION_DOT": 1.915e-05, "MEAN_MOTION_DDOT": 0}, "tle": {"line1": "1 46432U 93036BWW 25340.66772809  .00001915  00000+0  19683-2 0  9993", "line2": "2 46432  73.8715 120.8611 0473787 239.3402 141.9377 13.36616880668857"}}, "geometry": {"type": "Point", "coordinates": [107.52109176708798, -35.84255811082959]}}, {"type": "Feature", "properties": {"norad_id": 47045, "name": "COSMOS 2251 DEB", "group": "cosmos-2251-debris", "lat": -43.00243330766761, "lon": -5.679714962376285, "alt_km": 762.899692246102, "timestamp": "2025-12-07T11:27:50.405681+00:00", "meta": {"OBJECT_NAME": "COSMOS 2251 DEB", "OBJECT_ID": "1993-036BWZ", "EPOCH": "2025-12-03T07:08:12.151968", "MEAN_MOTION": 14.38891608, "ECCENTRICITY": 0.0030084, "INCLINATION": 74.0566, "RA_OF_ASC_NODE": 166.5562, "ARG_OF_PERICENTER": 309.0569, "MEAN_ANOMALY": 231.0781, "EPHEMERIS_TYPE": 0, "CLASSIFICATION_TYPE": "U", "NORAD_CAT_ID": 47045, "ELEMENT_SET_NO": 999, "REV_AT_EPOCH": 7669, "BSTAR": 0.00011844, "MEAN_MOTION_DOT": 3.4e-06, "MEAN_MOTION_DDOT": 0}, "tle": {"line1": "1 47045U 93036BWZ 25337.29736287  .00000340  00000+0  11844-3 0  9992", "line2": "2 47045  74.0566 166.5562 0030084 309.0569 231.0781 14.38891608 76696"}}, "geometry": {"type": "Point", "coordinates": [-5.679714962376285, -43.00243330766761]}}, {"type": "Feature", "properties": {"norad_id": 47048, "name": "COSMOS 2251 DEB", "group": "cosmos-2251-debris", "lat": -71.27583542859641, "lon": -152.88428671859157, "alt_km": 743.1695812729049, "timestamp": "2025-12-07T11:27:50.405692+00:00", "meta": {"OBJECT_NAME": "COSMOS 2251 DEB", "OBJECT_ID": "1993-036BXC", "EPOCH": "2025-12-04T08:10:39.254304", "MEAN_MOTION": 14.52183959, "ECCENTRICITY": 0.0133528, "INCLINATION": 73.9778, "RA_OF_ASC_NODE": 335.0779, "ARG_OF_PERICENTER": 165.1593, "MEAN_ANOMALY": 260.296, "EPHEMERIS_TYPE": 0, "CLASSIFICATION_TYPE": "U", "NORAD_CAT_ID": 47048, "ELEMENT_SET_NO": 999, "REV_AT_EPOCH": 59568, "BSTAR": 0.002635, "MEAN_MOTION_DOT": 0.00012001, "MEAN_MOTION_DDOT": 0}, "tle": {"line1": "1 47048U 93036BXC 25338.34073211  .00012001  00000+0  26350-2 0  9997", "line2": "2 47048  73.9778 335.0779 0133528 165.1593 260.2960 14.52183959595687"}}, "geometry": {"type": "Point", "coordinates": [-152.88428671859157, -71.27583542859641]}}, {"type": "Feature", "properties": {"norad_id": 47051, "name": "COSMOS 2251 DEB", "group": "cosmos-2251-debris", "lat": 36.070641422169125, "lon": -155.82673211190928, "alt_km": 1003.1130262447459, "timestamp": "2025-12-07T11:27:50.405725+00:00", "meta": {"OBJECT_NAME": "COSMOS 2251 DEB", "OBJECT_ID": "1993-036BXF", "EPOCH": "2025-12-01T21:55:10.667424", "MEAN_MOTION": 13.67061051, "ECCENTRICITY": 0.03413205, "INCLINATION": 74.1012, "RA_OF_ASC_NODE": 201.2803, "ARG_OF_PERICENTER": 317.1785, "MEAN_ANOMALY": 62.4119, "EPHEMERIS_TYPE": 0, "CLASSIFICATION_TYPE": "U", "NORAD_CAT_ID": 47051, "ELEMENT_SET_NO": 999, "REV_AT_EPOCH": 59790, "BSTAR": 0.0015947644, "MEAN_MOTION_DOT": 1.973e-05, "MEAN_MOTION_DDOT": 0}, "tle": {"line1": "1 47051U 93036BXF 25335.91331791  .00001973  00000+0  15948-2 0  9998", "line2": "2 47051  74.1012 201.2803 0341320 317.1785  62.4119 13.67061051597908"}}, "geometry": {"type": "Point", "coordinates": [-155.82673211190928, 36.070641422169125]}}, {"type": "Feature", "properties": {"norad_id": 47052, "name": "COSMOS 2251 DEB", "group": "cosmos-2251-debris", "lat": -58.30391797301341, "lon": -162.43600687737307, "alt_km": 821.5125321411524, "timestamp": "2025-12-07T11:27:50.405737+00:00", "meta": {"OBJECT_NAME": "COSMOS 2251 DEB", "OBJECT_ID": "1993-036BXG", "EPOCH": "2025-12-05T19:01:13.155168", "MEAN_MOTION": 14.35464627, "ECCENTRICITY": 0.00577854, "INCLINATION": 74.049, "RA_OF_ASC_NODE": 353.0607, "ARG_OF_PERICENTER": 69.2726, "MEAN_ANOMALY": 108.045, "EPHEMERIS_TYPE": 0, "CLASSIFICATION_TYPE": "U", "NORAD_CAT_ID": 47052, "ELEMENT_SET_NO": 999, "REV_AT_EPOCH": 61689, "BSTAR": 0.00041416194, "MEAN_MOTION_DOT": 1.188e-05, "MEAN_MOTION_DDOT": 0}, "tle": {"line1": "1 47052U 93036BXG 25339.79251337  .00001188  00000+0  41416-3 0  9994", "line2": "2 47052  74.0490 353.0607 0057785  69.2726 108.0450 14.35464627616892"}}, "geometry": {"type": "Point", "coordinates": [-162.43600687737307, -58.30391797301341]}}, {"type": "Feature", "properties": {"norad_id": 47053, "name": "COSMOS 2251 DEB", "group": "cosmos-2251-debris", "lat": 4.52184494701634, "lon": -96.12859915533637, "alt_km": 945.9199106577116, "timestamp": "2025-12-07T11:27:50.405747+00:00", "meta": {"OBJECT_NAME": "COSMOS 2251 DEB", "OBJECT_ID": "1993-036BXH", "EPOCH": "2025-12-02T02:37:04.787616", "MEAN_MOTION": 13.59615746, "ECCENTRICITY": 0.03758539, "INCLINATION": 74.0601, "RA_OF_ASC_NODE": 271.2609, "ARG_OF_PERICENTER": 87.2254, "MEAN_ANOMALY": 294.2026, "EPHEMERIS_TYPE": 0, "CLASSIFICATION_TYPE": "U", "NORAD_CAT_ID": 47053, "ELEMENT_SET_NO": 999, "REV_AT_EPOCH": 28744, "BSTAR": 0.0013831144, "MEAN_MOTION_DOT": 1.616e-05, "MEAN_MOTION_DDOT": 0}, "tle": {"line1": "1 47053U 93036BXH 25336.10908319  .00001616  00000+0  13831-2 0  9991", "line2": "2 47053  74.0601 271.2609 0375853  87.2254 294.2026 13.59615746287442"}}, "geometry": {"type": "Point", "coordinates": [-96.12859915533637, 4.52184494701634]}}, {"type": "Feature", "properties": {"norad_id": 47059, "name": "COSMOS 2251 DEB", "group": "cosmos-2251-debris", "lat": -31.15061793596164, "lon": 76.35781849411066, "alt_km": 543.4061565696547, "timestamp": "2025-12-07T11:27:50.405757+00:00", "meta": {"OBJECT_NAME": "COSMOS 2251 DEB", "OBJECT_ID": "1993-036BXP", "EPOCH": "2025-12-06T03:03:53.254944", "MEAN_MOTION": 15.11824975, "ECCENTRICITY": 0.0012241, "INCLINATION": 73.9837, "RA_OF_ASC_NODE": 249.1614, "ARG_OF_PERICENTER": 60.0281, "MEAN_ANOMALY": 7.7142, "EPHEMERIS_TYPE": 0, "CLASSIFICATION_TYPE": "U", "NORAD_CAT_ID": 47059, "ELEMENT_SET_NO": 999, "REV_AT_EPOCH": 8205, "BSTAR": 0.0045995756, "MEAN_MOTION_DOT": 0.00079589, "MEAN_MOTION_DDOT": 0}, "tle": {"line1": "1 47059U 93036BXP 25340.12769971  .00079589  00000+0  45996-2 0  9994", "line2": "2 47059  73.9837 249.1614 0012241  60.0281   7.7142 15.11824975 82057"}}, "geometry": {"type": "Point", "coordinates": [76.35781849411066, -31.15061793596164]}}]}